[{"OBJECT_NAME":"STARLINK-35155","OBJECT_ID":"2025-225AB","EPOCH":"2026-03-09T13:03:26.449632","MEAN_MOTION":15.30184809,"ECCENTRICITY":0.00010015,"INCLINATION":53.158,"RA_OF_ASC_NODE":166.5057,"ARG_OF_PERICENTER":83.3005,"MEAN_ANOMALY":276.811,"EPHEMERIS_TYPE":0,"CLASSIFICATION_TYPE":"U","NORAD_CAT_ID":65935,"ELEMENT_SET_NO":999,"REV_AT_EPOCH":2349,"BSTAR":0.00097461125,"MEAN_MOTION_DOT":0.00028604,"MEAN_MOTION_DDOT":0},{"OBJECT_NAME":"COSMOS 2251 DEB","OBJECT_ID":"1993-036DE","EPOCH":"2026-03-09T20:53:28.838688","MEAN_MOTION":15.29467846,"ECCENTRICITY":0.00306247,"INCLINATION":73.7716,"RA_OF_ASC_NODE":223.0836,"ARG_OF_PERICENTER":342.1726,"MEAN_ANOMALY":17.8397,"EPHEMERIS_TYPE":0,"CLASSIFICATION_TYPE":"U","NORAD_CAT_ID":33901,"ELEMENT_SET_NO":999,"REV_AT_EPOCH":90839,"BSTAR":0.0037194515,"MEAN_MOTION_DOT":0.00109321,"MEAN_MOTION_DDOT":0}]
